[{"OBJECT_NAME":"COSMOS 2583","OBJECT_ID":"2025-026C","EPOCH":"2026-03-09T19:42:40.304448","MEAN_MOTION":14.94821455,"ECCENTRICITY":0.0006043,"INCLINATION":81.9959,"RA_OF_ASC_NODE":175.853,"ARG_OF_PERICENTER":76.2523,"MEAN_ANOMALY":283.9369,"EPHEMERIS_TYPE":0,"CLASSIFICATION_TYPE":"U","NORAD_CAT_ID":62904,"ELEMENT_SET_NO":999,"REV_AT_EPOCH":5935,"BSTAR":0.00033674,"MEAN_MOTION_DOT":3.688e-5,"MEAN_MOTION_DDOT":0},{"OBJECT_NAME":"LANDSAT 5","OBJECT_ID":"1984-021A","EPOCH":"2026-03-09T17:06:39.595392","MEAN_MOTION":15.03956175,"ECCENTRICITY":0.00705197,"INCLINATION":98.0698,"RA_OF_ASC_NODE":343.5816,"ARG_OF_PERICENTER":90.3041,"MEAN_ANOMALY":270.6265,"EPHEMERIS_TYPE":0,"CLASSIFICATION_TYPE":"U","NORAD_CAT_ID":14780,"ELEMENT_SET_NO":999,"REV_AT_EPOCH":77643,"BSTAR":0.00029889959,"MEAN_MOTION_DOT":4.286e-5,"MEAN_MOTION_DDOT":0}]
